{
  "norad_id": 64421,
  "name": "STARLINK-34498",
  "history": [
    {
      "epoch": "2026-03-28T21:37:02.711712",
      "apogee_km": 574.0725752927101,
      "perigee_km": 569.8508073436551,
      "latitude_deg": -21.71710447078635,
      "longitude_deg": -11.430320319952443,
      "semi_major_axis_km": 6950.098691318182,
      "eccentricity": 0.00030372,
      "inclination_deg": 70.0033,
      "raan_deg": 26.0745,
      "arg_perigee_deg": 279.2867,
      "mean_anomaly_deg": 80.7949,
      "mean_motion_rev_day": 14.98360462
    },
    {
      "epoch": "2026-03-29T04:01:34.222080",
      "apogee_km": 574.0012171262724,
      "perigee_km": 569.800614210043,
      "latitude_deg": -50.9653192439669,
      "longitude_deg": 14.204691200051457,
      "semi_major_axis_km": 6950.037915668157,
      "eccentricity": 0.0003022,
      "inclination_deg": 70.0024,
      "raan_deg": 25.3992,
      "arg_perigee_deg": 273.6054,
      "mean_anomaly_deg": 86.4759,
      "mean_motion_rev_day": 14.98380116
    }
  ]
}